[{"OBJECT_NAME":"LEMUR-2-GREENBERG","OBJECT_ID":"2017-042N","EPOCH":"2026-03-09T11:05:17.256192","MEAN_MOTION":15.27971352,"ECCENTRICITY":0.00091572,"INCLINATION":97.3781,"RA_OF_ASC_NODE":249.8007,"ARG_OF_PERICENTER":4.0119,"MEAN_ANOMALY":356.1192,"EPHEMERIS_TYPE":0,"CLASSIFICATION_TYPE":"U","NORAD_CAT_ID":42837,"ELEMENT_SET_NO":999,"REV_AT_EPOCH":47314,"BSTAR":0.00072539172,"MEAN_MOTION_DOT":0.00019778,"MEAN_MOTION_DDOT":0},{"OBJECT_NAME":"STARLINK-30791","OBJECT_ID":"2023-167C","EPOCH":"2026-03-08T14:22:24.040704","MEAN_MOTION":15.26736371,"ECCENTRICITY":0.00013218,"INCLINATION":42.9987,"RA_OF_ASC_NODE":149.0936,"ARG_OF_PERICENTER":264.8741,"MEAN_ANOMALY":95.196,"EPHEMERIS_TYPE":0,"CLASSIFICATION_TYPE":"U","NORAD_CAT_ID":58177,"ELEMENT_SET_NO":999,"REV_AT_EPOCH":13082,"BSTAR":-6.3839658e-5,"MEAN_MOTION_DOT":-1.971e-5,"MEAN_MOTION_DDOT":0}]
